{"type": "FeatureCollection", "features": [ {"type": "Feature", "properties": {"norad_id": 66697, "name": "IRIDE FM3", "group": "last-30-days", "lat": 48.30355798936718, "lon": 60.77620465513157, "alt_km": 507.24578720311274, "timestamp": "2025-12-23T14:49:07.963605+00:00", "meta": {"OBJECT_NAME": "IRIDE FM3", "OBJECT_ID": "2025-276AH", "EPOCH": "2025-12-23T03:31:53.140512", "MEAN_MOTION": 15.18170055, "ECCENTRICITY": 0.00012157, "INCLINATION": 97.439, "RA_OF_ASC_NODE": 68.7477, "ARG_OF_PERICENTER": 153.3805, "MEAN_ANOMALY": 206.7491, "EPHEMERIS_TYPE": 0, "CLASSIFICATION_TYPE": "U", "NORAD_CAT_ID": 66697, "ELEMENT_SET_NO": 999, "REV_AT_EPOCH": 370, "BSTAR": 0.00059756617, "MEAN_MOTION_DOT": 0.00012153, "MEAN_MOTION_DDOT": 0}, "tle": {"line1": "1 66697U 25276AH  25357.14714283  .00012153  00000+0  59757-3 0  9995", "line2": "2 66697  97.4390  68.7477 0001215 153.3805 206.7491 15.18170055  3703"}}, "geometry": {"type": "Point", "coordinates": [60.77620465513157, 48.30355798936718]}}, {"type": "Feature", "properties": {"norad_id": 66698, "name": "IRIDE FM4", "group": "last-30-days", "lat": -27.906037636206275, "lon": 73.14642052105992, "alt_km": 526.1343939188846, "timestamp": "2025-12-23T14:49:07.963643+00:00", "meta": {"OBJECT_NAME": "IRIDE FM4", "OBJECT_ID": "2025-276AJ", "EPOCH": "2025-12-22T15:11:00.371616", "MEAN_MOTION": 15.16542107, "ECCENTRICITY": 0.00031447, "INCLINATION": 97.4393, "RA_OF_ASC_NODE": 68.213, "ARG_OF_PERICENTER": 198.1981, "MEAN_ANOMALY": 161.914, "EPHEMERIS_TYPE": 0, "CLASSIFICATION_TYPE": "U", "NORAD_CAT_ID": 66698, "ELEMENT_SET_NO": 999, "REV_AT_EPOCH": 362, "BSTAR": -0.020508134, "MEAN_MOTION_DOT": -0.00379692, "MEAN_MOTION_DDOT": 0}, "tle": {"line1": "1 66698U 25276AJ  25356.63264319 -.00379692  00000+0 -20508-1 0  9995", "line2": "2 66698  97.4393  68.2130 0003144 198.1981 161.9140 15.16542107  3626"}}, "geometry": {"type": "Point", "coordinates": [73.14642052105992, -27.906037636206275]}}, {"type": "Feature", "properties": {"norad_id": 66699, "name": "IRIDE FM5", "group": "last-30-days", "lat": -21.326048783932812, "lon": 72.10951763900512, "alt_km": 518.9045485745228, "timestamp": "2025-12-23T14:49:07.963667+00:00", "meta": {"OBJECT_NAME": "IRIDE FM5", "OBJECT_ID": "2025-276AK", "EPOCH": "2025-12-23T03:50:05.855136", "MEAN_MOTION": 15.17414141, "ECCENTRICITY": 0.00030865, "INCLINATION": 97.4403, "RA_OF_ASC_NODE": 68.7355, "ARG_OF_PERICENTER": 254.1945, "MEAN_ANOMALY": 105.8948, "EPHEMERIS_TYPE": 0, "CLASSIFICATION_TYPE": "U", "NORAD_CAT_ID": 66699, "ELEMENT_SET_NO": 999, "REV_AT_EPOCH": 370, "BSTAR": -0.00016185169, "MEAN_MOTION_DOT": -3.298e-05, "MEAN_MOTION_DDOT": 0}, "tle": {"line1": "1 66699U 25276AK  25357.15978999 -.00003298  00000+0 -16185-3 0  9994", "line2": "2 66699  97.4403  68.7355 0003086 254.1945 105.8948 15.17414141  3700"}}, "geometry": {"type": "Point", "coordinates": [72.10951763900512, -21.326048783932812]}}, {"type": "Feature", "properties": {"norad_id": 66700, "name": "IRIDE FM6", "group": "last-30-days", "lat": 51.80724919159973, "lon": 59.65768400757428, "alt_km": 506.71076345385154, "timestamp": "2025-12-23T14:49:07.963684+00:00", "meta": {"OBJECT_NAME": "IRIDE FM6", "OBJECT_ID": "2025-276AL", "EPOCH": "2025-12-23T05:05:52.514304", "MEAN_MOTION": 15.18226096, "ECCENTRICITY": 0.00016016, "INCLINATION": 97.4422, "RA_OF_ASC_NODE": 68.8236, "ARG_OF_PERICENTER": 159.7234, "MEAN_ANOMALY": 200.4064, "EPHEMERIS_TYPE": 0, "CLASSIFICATION_TYPE": "U", "NORAD_CAT_ID": 66700, "ELEMENT_SET_NO": 999, "REV_AT_EPOCH": 371, "BSTAR": 0.00058097249, "MEAN_MOTION_DOT": 0.00011832, "MEAN_MOTION_DDOT": 0}, "tle": {"line1": "1 66700U 25276AL  25357.21241336  .00011832  00000+0  58097-3 0  9991", "line2": "2 66700  97.4422  68.8236 0001601 159.7234 200.4064 15.18226096  3718"}}, "geometry": {"type": "Point", "coordinates": [59.65768400757428, 51.80724919159973]}}, {"type": "Feature", "properties": {"norad_id": 66701, "name": "IRIDE FM7", "group": "last-30-days", "lat": -21.455960042701772, "lon": 72.1356775432746, "alt_km": 518.908431720577, "timestamp": "2025-12-23T14:49:07.963702+00:00", "meta": {"OBJECT_NAME": "IRIDE FM7", "OBJECT_ID": "2025-276AM", "EPOCH": "2025-12-23T03:50:07.438848", "MEAN_MOTION": 15.17387909, "ECCENTRICITY": 0.00030687, "INCLINATION": 97.442, "RA_OF_ASC_NODE": 68.7413, "ARG_OF_PERICENTER": 255.2211, "MEAN_ANOMALY": 104.8683, "EPHEMERIS_TYPE": 0, "CLASSIFICATION_TYPE": "U", "NORAD_CAT_ID": 66701, "ELEMENT_SET_NO": 999, "REV_AT_EPOCH": 370, "BSTAR": 0.00063107157, "MEAN_MOTION_DOT": 0.00012555, "MEAN_MOTION_DDOT": 0}, "tle": {"line1": "1 66701U 25276AM  25357.15980832  .00012555  00000+0  63107-3 0  9997", "line2": "2 66701  97.4420  68.7413 0003068 255.2211 104.8683 15.17387909  3702"}}, "geometry": {"type": "Point", "coordinates": [72.1356775432746, -21.455960042701772]}}, {"type": "Feature", "properties": {"norad_id": 66702, "name": "IRIDE FM8", "group": "last-30-days", "lat": -20.49352135069033, "lon": 71.98290539066578, "alt_km": 518.6023448244878, "timestamp": "2025-12-23T14:49:07.963722+00:00", "meta": {"OBJECT_NAME": "IRIDE FM8", "OBJECT_ID": "2025-276AN", "EPOCH": "2025-12-23T03:49:52.129632", "MEAN_MOTION": 15.17392797, "ECCENTRICITY": 0.00028992, "INCLINATION": 97.4398, "RA_OF_ASC_NODE": 68.7338, "ARG_OF_PERICENTER": 262.7183, "MEAN_ANOMALY": 97.3721, "EPHEMERIS_TYPE": 0, "CLASSIFICATION_TYPE": "U", "NORAD_CAT_ID": 66702, "ELEMENT_SET_NO": 999, "REV_AT_EPOCH": 370, "BSTAR": 0.00054905218, "MEAN_MOTION_DOT": 0.00010914, "MEAN_MOTION_DDOT": 0}, "tle": {"line1": "1 66702U 25276AN  25357.15963113  .00010914  00000+0  54905-3 0  9994", "line2": "2 66702  97.4398  68.7338 0002899 262.7183  97.3721 15.17392797  3705"}}, "geometry": {"type": "Point", "coordinates": [71.98290539066578, -20.49352135069033]}}, {"type": "Feature", "properties": {"norad_id": 66703, "name": "PELICAN-6", "group": "last-30-days", "lat": -13.695008796308382, "lon": 71.01321106798954, "alt_km": 518.7054160161106, "timestamp": "2025-12-23T14:49:07.963739+00:00", "meta": {"OBJECT_NAME": "PELICAN-6", "OBJECT_ID": "2025-276AP", "EPOCH": "2025-12-23T03:48:02.112192", "MEAN_MOTION": 15.17340658, "ECCENTRICITY": 9.601e-05, "INCLINATION": 97.4407, "RA_OF_ASC_NODE": 68.7373, "ARG_OF_PERICENTER": 243.0945, "MEAN_ANOMALY": 117.0191, "EPHEMERIS_TYPE": 0, "CLASSIFICATION_TYPE": "U", "NORAD_CAT_ID": 66703, "ELEMENT_SET_NO": 999, "REV_AT_EPOCH": 370, "BSTAR": 0.00043500698, "MEAN_MOTION_DOT": 8.617e-05, "MEAN_MOTION_DDOT": 0}, "tle": {"line1": "1 66703U 25276AP  25357.15835778  .00008617  00000+0  43501-3 0  9997", "line2": "2 66703  97.4407  68.7373 0000960 243.0945 117.0191 15.17340658  3701"}}, "geometry": {"type": "Point", "coordinates": [71.01321106798954, -13.695008796308382]}}, {"type": "Feature", "properties": {"norad_id": 66704, "name": "FLOCK 4H-1", "group": "last-30-days", "lat": 43.668083306841034, "lon": 62.03953284655767, "alt_km": 508.6711923601597, "timestamp": "2025-12-23T14:49:07.963755+00:00", "meta": {"OBJECT_NAME": "FLOCK 4H-1", "OBJECT_ID": "2025-276AQ", "EPOCH": "2025-12-23T03:33:05.401152", "MEAN_MOTION": 15.18089482, "ECCENTRICITY": 0.00018122, "INCLINATION": 97.4383, "RA_OF_ASC_NODE": 68.7421, "ARG_OF_PERICENTER": 169.1225, "MEAN_ANOMALY": 191.0049, "EPHEMERIS_TYPE": 0, "CLASSIFICATION_TYPE": "U", "NORAD_CAT_ID": 66704, "ELEMENT_SET_NO": 999, "REV_AT_EPOCH": 370, "BSTAR": 0.00052953655, "MEAN_MOTION_DOT": 0.00010735, "MEAN_MOTION_DDOT": 0}, "tle": {"line1": "1 66704U 25276AQ  25357.14797918  .00010735  00000+0  52954-3 0  9996", "line2": "2 66704  97.4383  68.7421 0001812 169.1225 191.0049 15.18089482  3705"}}, "geometry": {"type": "Point", "coordinates": [62.03953284655767, 43.668083306841034]}}, {"type": "Feature", "properties": {"norad_id": 66705, "name": "FLOCK 4H-2", "group": "last-30-days", "lat": 46.30632441488674, "lon": 61.345626607547196, "alt_km": 507.73522833793504, "timestamp": "2025-12-23T14:49:07.963772+00:00", "meta": {"OBJECT_NAME": "FLOCK 4H-2", "OBJECT_ID": "2025-276AR", "EPOCH": "2025-12-23T03:32:24.448416", "MEAN_MOTION": 15.18139804, "ECCENTRICITY": 0.00012442, "INCLINATION": 97.4378, "RA_OF_ASC_NODE": 68.7427, "ARG_OF_PERICENTER": 158.5558, "MEAN_ANOMALY": 201.5729, "EPHEMERIS_TYPE": 0, "CLASSIFICATION_TYPE": "U", "NORAD_CAT_ID": 66705, "ELEMENT_SET_NO": 999, "REV_AT_EPOCH": 370, "BSTAR": 0.00055798398, "MEAN_MOTION_DOT": 0.00011333, "MEAN_MOTION_DDOT": 0}, "tle": {"line1": "1 66705U 25276AR  25357.14750519  .00011333  00000+0  55798-3 0  9997", "line2": "2 66705  97.4378  68.7427 0001244 158.5558 201.5729 15.18139804  3702"}}, "geometry": {"type": "Point", "coordinates": [61.345626607547196, 46.30632441488674]}}, {"type": "Feature", "properties": {"norad_id": 66706, "name": "FLOCK 4H-3", "group": "last-30-days", "lat": -9.421707362979738, "lon": 70.44752427741861, "alt_km": 518.2912946640727, "timestamp": "2025-12-23T14:49:07.963789+00:00", "meta": {"OBJECT_NAME": "FLOCK 4H-3", "OBJECT_ID": "2025-276AS", "EPOCH": "2025-12-23T05:21:54.701856", "MEAN_MOTION": 15.17477683, "ECCENTRICITY": 0.00029112, "INCLINATION": 97.4444, "RA_OF_ASC_NODE": 68.8171, "ARG_OF_PERICENTER": 244.1639, "MEAN_ANOMALY": 115.9295, "EPHEMERIS_TYPE": 0, "CLASSIFICATION_TYPE": "U", "NORAD_CAT_ID": 66706, "ELEMENT_SET_NO": 999, "REV_AT_EPOCH": 371, "BSTAR": 0.00030065091, "MEAN_MOTION_DOT": 5.957e-05, "MEAN_MOTION_DDOT": 0}, "tle": {"line1": "1 66706U 25276AS  25357.22354979  .00005957  00000+0  30065-3 0  9992", "line2": "2 66706  97.4444  68.8171 0002911 244.1639 115.9295 15.17477683  3714"}}, "geometry": {"type": "Point", "coordinates": [70.44752427741861, -9.421707362979738]}}]}